[{"OBJECT_NAME":"STARLINK-2364","OBJECT_ID":"2021-021AW","EPOCH":"2026-03-09T17:07:11.006112","MEAN_MOTION":15.30178556,"ECCENTRICITY":9.198e-5,"INCLINATION":53.1596,"RA_OF_ASC_NODE":255.1801,"ARG_OF_PERICENTER":95.2862,"MEAN_ANOMALY":264.8244,"EPHEMERIS_TYPE":0,"CLASSIFICATION_TYPE":"U","NORAD_CAT_ID":47904,"ELEMENT_SET_NO":999,"REV_AT_EPOCH":27641,"BSTAR":-7.6354232e-5,"MEAN_MOTION_DOT":-2.618e-5,"MEAN_MOTION_DDOT":0},{"OBJECT_NAME":"TIANMU-1 21","OBJECT_ID":"2023-208C","EPOCH":"2026-03-09T21:48:13.065120","MEAN_MOTION":15.33041299,"ECCENTRICITY":0.00059807,"INCLINATION":97.4378,"RA_OF_ASC_NODE":187.7048,"ARG_OF_PERICENTER":317.2488,"MEAN_ANOMALY":42.8288,"EPHEMERIS_TYPE":0,"CLASSIFICATION_TYPE":"U","NORAD_CAT_ID":58662,"ELEMENT_SET_NO":999,"REV_AT_EPOCH":12234,"BSTAR":0.00040063782,"MEAN_MOTION_DOT":0.00012722,"MEAN_MOTION_DDOT":0}]
